{
"type": "FeatureCollection",
"name": "region_shapes",
"crs": { "type": "name", "properties": { "name": "urn:ogc:def:crs:OGC:1.3:CRS84" } },
"features": [
{ "type": "Feature", "properties": { "csd": "3530004", "name": "North Dumfries" }, "geometry": { "type": "Polygon", "coordinates": [ [ [ -80.248486214606416, 43.333585763779311 ], [ -80.238441904545141, 43.306530911208498 ], [ -80.311573119701748, 43.294180736066416 ], [ -80.320725253291357, 43.292004806202641 ], [ -80.471543013221151, 43.266802011894882 ], [ -80.5059546068656, 43.353859388852229 ], [ -80.367277670645606, 43.37799775537902 ], [ -80.369995566723276, 43.382959524688012 ], [ -80.377352493491173, 43.383240232613026 ], [ -80.37791947741205, 43.385910074866032 ], [ -80.376874839119111, 43.386712565363915 ], [ -80.369378583620588, 43.387593661456648 ], [ -80.363904597189631, 43.385181154457001 ], [ -80.358321212051592, 43.384278229840611 ], [ -80.348793604114022, 43.386121014776343 ], [ -80.346642528606992, 43.385974011242659 ], [ -80.341656974882113, 43.383117577087567 ], [ -80.340885773087393, 43.378887672207973 ], [ -80.337055112706111, 43.376268217327812 ], [ -80.34945380770786, 43.373824922367653 ], [ -80.344071412459357, 43.359105160230229 ], [ -80.345578151064188, 43.359541295068929 ], [ -80.350026639520962, 43.358020520112738 ], [ -80.348457844559817, 43.35248587529459 ], [ -80.342185012663037, 43.353206982879591 ], [ -80.342039410018543, 43.349305845507303 ], [ -80.343818582468586, 43.349005614197168 ], [ -80.34172865334223, 43.343948982107257 ], [ -80.342145060135593, 43.341986891841167 ], [ -80.339937384553124, 43.338070908312261 ], [ -80.335883129135865, 43.334906432098421 ], [ -80.331456034086756, 43.333202299706763 ], [ -80.326800493063104, 43.33268452471367 ], [ -80.31562742152272, 43.333483621888881 ], [ -80.313408698921023, 43.332835580709364 ], [ -80.309950475463808, 43.334553235882787 ], [ -80.290077310236043, 43.337847605106397 ], [ -80.273281456398934, 43.337775374453315 ], [ -80.266821712615808, 43.339610041974787 ], [ -80.264337601386543, 43.342323013528805 ], [ -80.263954359385508, 43.344566012387631 ], [ -80.251353489009603, 43.340509193774054 ], [ -80.269572969713593, 43.387342131451568 ], [ -80.204678198852804, 43.397518510192214 ], [ -80.195157082298962, 43.365147688153002 ], [ -80.187603101749659, 43.343234500741218 ], [ -80.248486214606416, 43.333585763779311 ] ] ] } },
{ "type": "Feature", "properties": { "csd": "3530010", "name": "Cambridge" }, "geometry": { "type": "Polygon", "coordinates": [ [ [ -80.280230405563515, 43.413746999557134 ], [ -80.280487214063072, 43.411759194003508 ], [ -80.278752006767888, 43.410342312690503 ], [ -80.251353489009603, 43.340509193774054 ], [ -80.263954359385508, 43.344566012387631 ], [ -80.264337601386543, 43.342323013528805 ], [ -80.266821712615808, 43.339610041974787 ], [ -80.273281456398934, 43.337775374453315 ], [ -80.290077310236043, 43.337847605106397 ], [ -80.309950475463808, 43.334553235882787 ], [ -80.313408698921023, 43.332835580709364 ], [ -80.31562742152272, 43.333483621888881 ], [ -80.326800493063104, 43.33268452471367 ], [ -80.331456034086756, 43.333202299706763 ], [ -80.335883129135865, 43.334906432098421 ], [ -80.339937384553124, 43.338070908312261 ], [ -80.342145060135593, 43.341986891841167 ], [ -80.34172865334223, 43.343948982107257 ], [ -80.343818582468586, 43.349005614197168 ], [ -80.342039410018543, 43.349305845507303 ], [ -80.342185012663037, 43.353206982879591 ], [ -80.348457844559817, 43.35248587529459 ], [ -80.350026639520962, 43.358020520112738 ], [ -80.345578151064188, 43.359541295068929 ], [ -80.344071412459357, 43.359105160230229 ], [ -80.34945380770786, 43.373824922367653 ], [ -80.337055112706111, 43.376268217327812 ], [ -80.340885773087393, 43.378887672207973 ], [ -80.341656974882113, 43.383117577087567 ], [ -80.346642528606992, 43.385974011242659 ], [ -80.348793604114022, 43.386121014776343 ], [ -80.358321212051592, 43.384278229840611 ], [ -80.363904597189631, 43.385181154457001 ], [ -80.368199836679651, 43.387527522839768 ], [ -80.374889701126094, 43.387335011799195 ], [ -80.37791947741205, 43.385910074866032 ], [ -80.377352493491173, 43.383240232613026 ], [ -80.369995566723276, 43.382959524688012 ], [ -80.367277670645606, 43.37799775537902 ], [ -80.413904657284476, 43.36982548186824 ], [ -80.405329487607489, 43.384914087106914 ], [ -80.402343111725898, 43.388554410233553 ], [ -80.378726564764392, 43.401728506696472 ], [ -80.379931743366626, 43.406388971265507 ], [ -80.38084061556539, 43.406294746092598 ], [ -80.38265980960665, 43.410981991786585 ], [ -80.382097970458631, 43.411776350667679 ], [ -80.403217546237329, 43.416096104969746 ], [ -80.408514737666493, 43.419942002699187 ], [ -80.40973486519205, 43.421762397103691 ], [ -80.403378529961813, 43.42334596339095 ], [ -80.401853089668407, 43.426675079585813 ], [ -80.402650456697472, 43.429148396206578 ], [ -80.409327283438145, 43.433704643045779 ], [ -80.410325812669328, 43.435637234964609 ], [ -80.409792062763913, 43.437497730306482 ], [ -80.400984024382169, 43.443778039111976 ], [ -80.393789785534736, 43.447357173685965 ], [ -80.392169429276279, 43.450205440749279 ], [ -80.387787604820261, 43.443602291326691 ], [ -80.378832512014924, 43.446795608561246 ], [ -80.372770708047696, 43.450967596149638 ], [ -80.358254312031491, 43.455092010078047 ], [ -80.352994782105725, 43.459168404853258 ], [ -80.341466396081017, 43.461029487374908 ], [ -80.336254387862326, 43.464006811130105 ], [ -80.316268287858179, 43.470997354820604 ], [ -80.306026290985443, 43.472066192647674 ], [ -80.295731285074751, 43.451374190072769 ], [ -80.280230405563515, 43.413746999557134 ] ] ] } },
{ "type": "Feature", "properties": { "csd": "3530013", "name": "Kitchener" }, "geometry": { "type": "Polygon", "coordinates": [ [ [ -80.464414096935116, 43.499836617026212 ], [ -80.467483009396162, 43.496232840403479 ], [ -80.472330190418646, 43.49363309744988 ], [ -80.473338659996159, 43.491747921340142 ], [ -80.472681519433507, 43.488985420639771 ], [ -80.470834809595303, 43.486988552098509 ], [ -80.469671719468352, 43.48736385974405 ], [ -80.467796540034655, 43.484448831390836 ], [ -80.465509304123444, 43.485376009041694 ], [ -80.464858866231452, 43.484380572729663 ], [ -80.46269728865515, 43.485251802463395 ], [ -80.458137799513807, 43.483070567656625 ], [ -80.455220536023802, 43.477312805582599 ], [ -80.448397003791854, 43.476704145748926 ], [ -80.441626149506178, 43.478356728539573 ], [ -80.433414089736502, 43.48204199278144 ], [ -80.430294704809654, 43.482223270436862 ], [ -80.424643460998212, 43.481253613417707 ], [ -80.422340755015455, 43.479641954008841 ], [ -80.422393133165968, 43.477532478706749 ], [ -80.423323746994782, 43.475987529710288 ], [ -80.426513958894631, 43.473907469447362 ], [ -80.427010540319003, 43.470477786474426 ], [ -80.423085171557034, 43.466365712867983 ], [ -80.420381507859005, 43.461409879970766 ], [ -80.41511638434271, 43.458009961406262 ], [ -80.411477479858846, 43.45707140998352 ], [ -80.402102405814659, 43.456586013971197 ], [ -80.395023753138958, 43.455077910228781 ], [ -80.393580657829844, 43.454062389874522 ], [ -80.392057208730705, 43.451935397546642 ], [ -80.393789785534736, 43.447357173685965 ], [ -80.400984024382169, 43.443778039111976 ], [ -80.409792062763913, 43.437497730306482 ], [ -80.410325812669328, 43.435637234964609 ], [ -80.409327283438145, 43.433704643045779 ], [ -80.402650456697472, 43.429148396206578 ], [ -80.401853089668407, 43.426675079585813 ], [ -80.403378529961813, 43.42334596339095 ], [ -80.40973486519205, 43.421762397103691 ], [ -80.408514737666493, 43.419942002699187 ], [ -80.403217546237329, 43.416096104969746 ], [ -80.382097970458631, 43.411776350667679 ], [ -80.38265980960665, 43.410981991786585 ], [ -80.38084061556539, 43.406294746092598 ], [ -80.379931743366626, 43.406388971265507 ], [ -80.378726564764392, 43.401728506696472 ], [ -80.402343111725898, 43.388554410233553 ], [ -80.405329487607489, 43.384914087106914 ], [ -80.413904657284476, 43.36982548186824 ], [ -80.5059546068656, 43.353859388852229 ], [ -80.516530096742301, 43.380233710617439 ], [ -80.574103822468643, 43.432659873833295 ], [ -80.547333312174331, 43.441283702615038 ], [ -80.545159209336006, 43.44406668904896 ], [ -80.542813070509467, 43.442870791523035 ], [ -80.541138294804441, 43.443438105698455 ], [ -80.54245997981252, 43.445650462398198 ], [ -80.539294543114309, 43.447131025162363 ], [ -80.541127581551464, 43.449262956259837 ], [ -80.528926924360462, 43.452114212662622 ], [ -80.526357800366938, 43.453003503845203 ], [ -80.527129067889916, 43.453838565954058 ], [ -80.521702711461572, 43.454933860450446 ], [ -80.519065910977076, 43.45677096462677 ], [ -80.50041540550987, 43.463221724101601 ], [ -80.501653263525014, 43.464422327322467 ], [ -80.498438989342247, 43.466201891208037 ], [ -80.500837863104962, 43.468454839882625 ], [ -80.495762941564777, 43.470492453870364 ], [ -80.496545210772652, 43.471281899468501 ], [ -80.495566059993237, 43.471523673612751 ], [ -80.496242686161992, 43.473143600365468 ], [ -80.49350923074266, 43.474083689835133 ], [ -80.495616014021479, 43.475644005272933 ], [ -80.497979573509994, 43.480064795309872 ], [ -80.484106689090567, 43.485578401788509 ], [ -80.481031696778174, 43.48941841232201 ], [ -80.480959095414988, 43.499721299033148 ], [ -80.477085896345002, 43.500961906003752 ], [ -80.479250208741121, 43.503843526293238 ], [ -80.477443074266375, 43.503662930492922 ], [ -80.472218306379361, 43.506752374842215 ], [ -80.468456531381975, 43.506554578132189 ], [ -80.466272364476779, 43.505593612851648 ], [ -80.464414096935116, 43.499836617026212 ] ] ] } },
{ "type": "Feature", "properties": { "csd": "3530016", "name": "Waterloo" }, "geometry": { "type": "Polygon", "coordinates": [ [ [ -80.494998872360043, 43.511546267507782 ], [ -80.494891959503178, 43.508333887934967 ], [ -80.492654152016271, 43.502633015321543 ], [ -80.489793372319241, 43.501772012512724 ], [ -80.479250208741121, 43.503843526293238 ], [ -80.477085896345002, 43.500961906003752 ], [ -80.480959095414988, 43.499721299033148 ], [ -80.480955710432056, 43.489625113382395 ], [ -80.484106689090567, 43.485578401788509 ], [ -80.497979573509994, 43.480064795309872 ], [ -80.495616014021479, 43.475644005272933 ], [ -80.49350923074266, 43.474083689835133 ], [ -80.496242686161992, 43.473143600365468 ], [ -80.495566059993237, 43.471523673612751 ], [ -80.496545210772652, 43.471281899468501 ], [ -80.495762941564777, 43.470492453870364 ], [ -80.500837863104962, 43.468454839882625 ], [ -80.498438989342247, 43.466201891208037 ], [ -80.501653263525014, 43.464422327322467 ], [ -80.50041540550987, 43.463221724101601 ], [ -80.519065910977076, 43.45677096462677 ], [ -80.521702711461572, 43.454933860450446 ], [ -80.527129067889916, 43.453838565954058 ], [ -80.526357800366938, 43.453003503845203 ], [ -80.528926924360462, 43.452114212662622 ], [ -80.541127581551464, 43.449262956259837 ], [ -80.539294543114309, 43.447131025162363 ], [ -80.54245997981252, 43.445650462398198 ], [ -80.541138294804441, 43.443438105698455 ], [ -80.542813070509467, 43.442870791523035 ], [ -80.545159209336006, 43.44406668904896 ], [ -80.547333312174331, 43.441283702615038 ], [ -80.574103822468643, 43.432659873833295 ], [ -80.626184206685437, 43.479747092976787 ], [ -80.575593024490857, 43.498189991513755 ], [ -80.555481382716025, 43.504862004526139 ], [ -80.54585225515568, 43.50716678654203 ], [ -80.540757692756458, 43.510041497872201 ], [ -80.482464412371712, 43.530573448536479 ], [ -80.480511953054673, 43.531800385358011 ], [ -80.479974552274655, 43.528833069319155 ], [ -80.476258401820672, 43.524896098006188 ], [ -80.468741305241835, 43.521691913459122 ], [ -80.46751201663885, 43.520319495458658 ], [ -80.467968623111787, 43.517955851827764 ], [ -80.470666944592864, 43.516445201790766 ], [ -80.483875978759784, 43.516178885581397 ], [ -80.487432556917511, 43.513189335010573 ], [ -80.493118348229672, 43.512522277235732 ], [ -80.494998872360043, 43.511546267507782 ] ] ] } },
{ "type": "Feature", "properties": { "csd": "3530020", "name": "Wilmot" }, "geometry": { "type": "Polygon", "coordinates": [ [ [ -80.516738099199344, 43.380468703873944 ], [ -80.503632596036809, 43.348068396122486 ], [ -80.629974986456048, 43.327207887241649 ], [ -80.734919985998047, 43.310980996556246 ], [ -80.737315102872003, 43.407454104335372 ], [ -80.79636555711491, 43.468411835146931 ], [ -80.676039237683739, 43.475771565170177 ], [ -80.626184206685437, 43.479747092976787 ], [ -80.516738099199344, 43.380468703873944 ] ] ] } },
{ "type": "Feature", "properties": { "csd": "3530027", "name": "Wellesley" }, "geometry": { "type": "Polygon", "coordinates": [ [ [ -80.795722142062246, 43.468245055450282 ], [ -80.869036493736388, 43.498048707169318 ], [ -80.836033995862735, 43.54442310442991 ], [ -80.754545810992028, 43.648404700219487 ], [ -80.689804106304919, 43.621637399276032 ], [ -80.608011842157566, 43.589102236578064 ], [ -80.609615309785681, 43.583258533065106 ], [ -80.626184206685437, 43.479747092976787 ], [ -80.795722142062246, 43.468245055450282 ] ] ] } },
{ "type": "Feature", "properties": { "csd": "3530035", "name": "Woolwich" }, "geometry": { "type": "Polygon", "coordinates": [ [ [ -80.405366392329299, 43.580015783881656 ], [ -80.403814157350936, 43.580278612662667 ], [ -80.397660909635135, 43.574110294954778 ], [ -80.383014500819456, 43.563596403740938 ], [ -80.36723768420444, 43.569406019981756 ], [ -80.37394161019823, 43.532696889643127 ], [ -80.306026290985443, 43.472066192647674 ], [ -80.316268287858179, 43.470997354820604 ], [ -80.336254387862326, 43.464006811130105 ], [ -80.341466396081017, 43.461029487374908 ], [ -80.352994782105725, 43.459168404853258 ], [ -80.358254312031491, 43.455092010078047 ], [ -80.372770708047696, 43.450967596149638 ], [ -80.378832512014924, 43.446795608561246 ], [ -80.387787604820261, 43.443602291326691 ], [ -80.392169429276279, 43.450205440749279 ], [ -80.392057208730705, 43.451935397546642 ], [ -80.395023753138958, 43.455077910228781 ], [ -80.403897279364017, 43.45689357740526 ], [ -80.411477479858846, 43.45707140998352 ], [ -80.41511638434271, 43.458009961406262 ], [ -80.420381507859005, 43.461409879970766 ], [ -80.423085171557034, 43.466365712867983 ], [ -80.427010540319003, 43.470477786474426 ], [ -80.426513958894631, 43.473907469447362 ], [ -80.423323746994782, 43.475987529710288 ], [ -80.422393133165968, 43.477532478706749 ], [ -80.422280022522017, 43.479473090991831 ], [ -80.423478382043285, 43.480738059940066 ], [ -80.432532748752493, 43.482209394897097 ], [ -80.441626149506178, 43.478356728539573 ], [ -80.448397003791854, 43.476704145748926 ], [ -80.455220536023802, 43.477312805582599 ], [ -80.458137799513807, 43.483070567656625 ], [ -80.46269728865515, 43.485251802463395 ], [ -80.464858866231452, 43.484380572729663 ], [ -80.465509304123444, 43.485376009041694 ], [ -80.467796540034655, 43.484448831390836 ], [ -80.469671719468352, 43.48736385974405 ], [ -80.470834809595303, 43.486988552098509 ], [ -80.472681519433507, 43.488985420639771 ], [ -80.473338659996159, 43.491747921340142 ], [ -80.472330190418646, 43.49363309744988 ], [ -80.467483009396162, 43.496232840403479 ], [ -80.464414096935116, 43.499836617026212 ], [ -80.466272364476779, 43.505593612851648 ], [ -80.468456531381975, 43.506554578132189 ], [ -80.472218306379361, 43.506752374842215 ], [ -80.477443074266375, 43.503662930492922 ], [ -80.479755662144299, 43.503879636988685 ], [ -80.489793372319241, 43.501772012512724 ], [ -80.492654152016271, 43.502633015321543 ], [ -80.495124643766943, 43.509261242358377 ], [ -80.494157420853057, 43.51229610083606 ], [ -80.487432556917511, 43.513189335010573 ], [ -80.483875978759784, 43.516178885581397 ], [ -80.470666944592864, 43.516445201790766 ], [ -80.468562686170117, 43.517305811251106 ], [ -80.467341629428816, 43.519387006319967 ], [ -80.469858199893778, 43.52254709152087 ], [ -80.477297895676671, 43.525872884100011 ], [ -80.480662003947174, 43.53002267445742 ], [ -80.480511953054673, 43.531800385358011 ], [ -80.482464412371712, 43.530573448536479 ], [ -80.540757692756458, 43.510041497872201 ], [ -80.54585225515568, 43.50716678654203 ], [ -80.555481382716025, 43.504862004526139 ], [ -80.575593024490857, 43.498189991513755 ], [ -80.626184206685437, 43.479747092976787 ], [ -80.609615309785681, 43.583258533065106 ], [ -80.608200420647094, 43.587530820905435 ], [ -80.595477499452102, 43.661625992394818 ], [ -80.557543413435312, 43.6895960054499 ], [ -80.405366392329299, 43.580015783881656 ] ] ] } }
]
}
